#dP2024 12 13  0  0  0.00000000      96 __u+U IGS20 FIT  IAC
## 2344 432000.00000000   900.00000000 60657 0.0000000000000
+   52   G02G03G04G05G06G07G08G09G10G11G12G13G14G15G16G17G18
+        G19G20G21G22G23G24G25G26G27G28G29G30G31G32R01R02R03
+        R04R05R07R08R09R11R12R14R15R16R17R18R19R20R21R22R24
+        R26  0  0  0  0  0  0  0  0  0  0  0  0  0  0  0  0
+          0  0  0  0  0  0  0  0  0  0  0  0  0  0  0  0  0
++         5  6  6  6  5  6  5  6  6  6  6  6  5  6  6  5  6
++         7  6  6  5  6  6  6  6  6  5  7  6  5  6  7  6  7
++         6  7  6  6  5  7  7  6  7  7  6  6  7  7  8  5  6
++         5  0  0  0  0  0  0  0  0  0  0  0  0  0  0  0  0
++         0  0  0  0  0  0  0  0  0  0  0  0  0  0  0  0  0
%c M  cc GPS ccc cccc cccc cccc cccc ccccc ccccc ccccc ccccc
%c cc cc ccc ccc cccc cccc cccc cccc ccccc ccccc ccccc ccccc
%f  0.0000000  0.000000000  0.00000000000  0.000000000000000
%f  0.0000000  0.000000000  0.00000000000  0.000000000000000
%i    0    0    0    0      0      0      0      0         0
%i    0    0    0    0      0      0      0      0         0
/* INFORMATION & ANALYSIS CENTER (IAC)      ULTRA-RAPID DATA
/* S/V CLOCKS ARE ALIGNED TO GNSS TIME                      
/* G:C1WC2W R:C1PC2P E:C1XC5X C:C2IC6I J:C1CC2S             
/* PCV:IGS20_2317 OL/AL:FES2004  NONE     YN ORB:CoN CLK:CoN
*  2024 12 13  0  0  0.00000000
PG02  14059.358022  -8327.297799  21337.677230   -293.386642
PG03  23260.470153 -12649.811532    886.292477    623.134539
PG04  17957.596563  -4382.387840 -19112.855789    494.884287
PG05 -21898.929148   1936.140739 -15127.117459   -195.828674
PG06  -5830.738410 -24052.973956  -9404.121330    -39.646905
PG07   7253.796384 -22922.210526 -10238.931640    -15.830158
PG08  24211.942470   4191.988259  10515.897823    437.011194
PG09   9723.358803 -12005.831075 -21699.351034    484.486355
PG10   1268.024385  15695.006092  21557.433583   -232.065239
PG11 -12383.577335 -14104.968022 -18774.620193   -752.555429
PG12 -24592.687015   8995.047548   4007.281893   -557.985146
PG13 -22490.617482 -13474.255046   4754.749179    689.730146
PG14   2834.036559 -17722.420438  19550.548184    558.952951
PG15 -24278.919137  -1054.200485  10364.982934    238.864362
PG16  19573.581933   4628.667217 -17923.150066   -104.793353
PG17  -6140.011224 -18868.573963  17969.905887    521.580381
PG18  -6175.081630  24252.228670  -8517.241717   -660.364898
PG19 -15640.534272 -19436.592526   9577.005692    573.292967
PG20 -14331.693376  -7271.873918 -21040.109705    367.942913
PG21  15439.709070   -253.170422  22013.298088     95.593149
PG22  -4831.844024 -14718.506376  21978.498389    -85.951050
PG23 -12847.412858  18666.048454  13702.535441    382.307385
PG24 -14747.128242   6208.167154  20684.867714   -473.932648
PG25 -18202.341173  17633.571487  -7832.237829    498.161226
PG26  10779.574054  11889.839985 -21362.336620     -6.684863
PG27  23471.461077  12921.767480    272.741756    -34.229713
PG28   5915.992912  24859.307895  -7256.528567   -506.446654
PG29 -10604.187116  10926.665731 -21814.226873   -556.432124
PG30   -643.756087 -26399.891073    677.522394   -262.577600
PG31  11060.011867  18032.687650 -16077.643113   -220.087024
PG32  11078.589811  18671.861474  15663.977107   -559.967417
PR01  17931.117771   9729.044751  15308.044503    107.567105
PR02  25206.350414   4065.848938   -851.265384    -39.164133
PR03  18512.458498  -4892.857984 -16844.031687    113.132486
PR04   1993.375631 -10465.222312 -23149.067249    268.166462
PR05 -15535.769274 -10791.421518 -17087.429557    142.097548
PR07 -18092.074798   5126.910590  17243.985533     96.821475
PR08  -1559.379447  10691.056430  23165.878008     -6.123439
PR09 -15537.855201   4117.559168  19849.496101    225.889711
PR11 -11223.041260  20968.211746  -9239.507615      4.796055
PR12   3793.279413  12142.159963 -22089.644550     48.347127
PR14  17709.972716 -17162.579711  -6474.897628     27.413800
PR15  10114.268782 -20737.830581  10883.441161     73.241584
PR16  -3609.217059 -12154.661159  22130.606440     31.578692
PR17   7055.793867 -10396.133801  22222.024266    148.009836
PR18  -1923.772670 -22227.673193  12344.543237    176.516066
PR19  -8595.778215 -23931.110899  -2053.565450   -301.702132
PR20 -12465.673552  -9626.788909 -20034.959340   -123.144465
PR21  -7629.328074   9146.779332 -22543.911118   -159.050162
PR22   2015.550767  22885.903160 -11063.108676    -39.648231
PR24  13280.379012   8365.529851  20126.172448    -83.817646
PR26  -3594.574191  10309.071276  23072.987525   -132.797482
*  2024 12 13  0 15  0.00000000
PG02  14405.230430  -5971.020341  21934.315807   -293.378704
PG03  23115.458428 -12340.798869   3785.120770    623.142616
PG04  19711.536339  -3229.684312 -17565.605340    494.889839
PG05 -20492.451012    790.144530 -17090.596632   -195.830082
PG06  -5675.777531 -24985.931517  -6686.099683    -39.672873
PG07   7588.977067 -21532.691003 -12650.692107    -15.829343
PG08  25070.231611   4859.517180   7977.397461    437.019479
PG09  11885.471695 -10883.995989 -21212.840790    484.500975
PG10   -778.388189  16885.854791  20621.978067   -232.079116
PG11 -12227.469689 -16163.539095 -17156.551147   -752.555723
PG12 -24137.875691   8465.227798   6777.300470   -557.987611
PG13 -22697.858177 -13877.157775   1923.074759    689.731545
PG14   4770.445640 -18698.497944  18194.274049    558.959855
PG15 -25232.201760  -1687.466715   7834.501092    238.868628
PG16  17790.003715   5657.844202 -19413.579341   -104.784869
PG17  -4304.918949 -17898.616822  19484.732155    521.566240
PG18  -6405.094621  23124.102071 -11104.871337   -660.364532
PG19 -14506.361498 -18897.581533  12043.293898    573.296876
PG20 -12551.290830  -8964.946978 -21529.075202    367.942666
PG21  15771.349973   2140.751178  21765.354616     95.595692
PG22  -2675.270776 -15792.252001  21618.877348    -85.953575
PG23 -14134.610758  19311.753963  11305.407851    382.314327
PG24 -15143.427193   3741.730180  21018.545011   -473.929936
PG25 -18951.759397  17778.024775  -5114.828576    498.160924
PG26   8839.705957  13333.448979 -21366.027390     -6.697458
PG27  23282.778914  13077.381770  -2551.060367    -34.229472
PG28   5715.558632  25545.580643  -4506.975670   -506.456440
PG29 -12664.531099   9588.303838 -21349.516051   -556.429124
PG30   -290.261569 -26312.813580  -2139.927595   -262.570307
PG31  10869.391832  19733.488492 -14016.344519   -220.086705
PG32   9366.556529  17948.778072  17523.836040   -559.962024
PR01  15923.909794   9416.533460  17558.053149    107.568659
PR02  25145.053047   3873.978320   2367.663340    -39.163704
PR03  20451.950943  -4762.009952 -14484.599986    113.132310
PR04   4817.240926 -10073.300482 -22908.350291    268.168335
PR05 -13338.490679 -10353.724648 -19097.823596    142.097874
PR07 -20071.331957   4981.820642  14931.684896     96.821534
PR08  -4368.555844  10323.462612  22968.357390     -6.122995
PR09 -14035.499093   2085.198028  21231.883507    225.891994
PR11 -11685.815056  21813.970591  -6216.384624      4.794942
PR12   2218.621925  14289.135780 -20991.973069     48.347757
PR14  17035.136419 -16437.254847  -9472.776019     27.414027
PR15  10723.757856 -21732.893619   7963.078434     73.241551
PR16  -2046.889217 -14311.040179  21009.646689     31.578936
PR17   8064.867699  -7801.690137  22926.784919    148.012975
PR18  -1459.059447 -20600.438219  14962.342013    176.517513
PR19  -8817.740635 -23909.990535   1189.148936   -301.703755
PR20 -13367.722738 -11818.941504 -18194.268959   -123.144548
PR21  -8637.258481   6511.606900 -23090.879209   -159.052872
PR22   1600.335871  21401.226229 -13763.923360    -39.660037
PR24  14253.613986  10528.563001  18364.646150    -83.819053
PR26  -6390.149470   9977.409576  22610.210809   -132.797240
EOF
